ONEWEB-0228             
1 48780U 21045P   23351.31275880  .00000221  00000+0  55223-3 0  9991
2 48780  87.9000  80.9116 0001619 108.6911 251.4395 13.15541198124308
